{
  "type": "FeatureCollection",
  "features": [
    {
      "type": "Feature",
      "properties": {
        "norad_id": 41772,
        "name": "SKYSAT-C5",
        "group": "resource",
        "lat": 31.04595698979457,
        "lon": -148.50394816776424,
        "alt_km": 457.0363899860813,
        "timestamp": "2025-12-09T07:41:32.860304+00:00",
        "meta_object_name": "SKYSAT-C5",
        "meta_object_id": "2016-058C",
        "meta_epoch": "2025-12-08T16:58:08.193792",
        "meta_mean_motion": 15.35249679,
        "meta_eccentricity": 0.00022093,
        "meta_inclination": 97.0758,
        "meta_ra_of_asc_node": 26.6189,
        "meta_arg_of_pericenter": 144.4303,
        "meta_mean_anomaly": 215.7089,
        "meta_ephemeris_type": 0,
        "meta_classification_type": "U",
        "meta_norad_cat_id": 41772,
        "meta_element_set_no": 999,
        "meta_rev_at_epoch": 51454,
        "meta_bstar": 0.00037230988,
        "meta_mean_motion_dot": 0.00012674,
        "meta_mean_motion_ddot": 0,
        "tle_line1": "1 41772U 16058C   25342.70703928  .00012674  00000+0  37231-3 0  9991",
        "tle_line2": "2 41772  97.0758  26.6189 0002209 144.4303 215.7089 15.35249679514545"
      },
      "geometry": {
        "type": "Point",
        "coordinates": [
          -148.50394816776424,
          31.04595698979457
        ]
      }
    },
    {
      "type": "Feature",
      "properties": {
        "norad_id": 41773,
        "name": "SKYSAT-C2",
        "group": "resource",
        "lat": 44.99073017700643,
        "lon": -164.91527148195738,
        "alt_km": 450.87142747287,
        "timestamp": "2025-12-09T07:41:32.860314+00:00",
        "meta_object_name": "SKYSAT-C2",
        "meta_object_id": "2016-058D",
        "meta_epoch": "2025-12-08T23:17:52.463040",
        "meta_mean_motion": 15.37137386,
        "meta_eccentricity": 0.00046234,
        "meta_inclination": 97.0362,
        "meta_ra_of_asc_node": 7.6572,
        "meta_arg_of_pericenter": 44.0483,
        "meta_mean_anomaly": 316.113,
        "meta_ephemeris_type": 0,
        "meta_classification_type": "U",
        "meta_norad_cat_id": 41773,
        "meta_element_set_no": 999,
        "meta_rev_at_epoch": 51578,
        "meta_bstar": 0.00037772078,
        "meta_mean_motion_dot": 0.00013668,
        "meta_mean_motion_ddot": 0,
        "tle_line1": "1 41773U 16058D   25342.97074610  .00013668  00000+0  37772-3 0  9994",
        "tle_line2": "2 41773  97.0362   7.6572 0004623  44.0483 316.1130 15.37137386515781"
      },
      "geometry": {
        "type": "Point",
        "coordinates": [
          -164.91527148195738,
          44.99073017700643
        ]
      }
    },
    {
      "type": "Feature",
      "properties": {
        "norad_id": 41774,
        "name": "SKYSAT-C3",
        "group": "resource",
        "lat": -55.388791242461465,
        "lon": -172.92488662463592,
        "alt_km": 441.5337201158418,
        "timestamp": "2025-12-09T07:41:32.860325+00:00",
        "meta_object_name": "SKYSAT-C3",
        "meta_object_id": "2016-058E",
        "meta_epoch": "2025-12-08T19:47:14.322912",
        "meta_mean_motion": 15.4418834,
        "meta_eccentricity": 0.00016067,
        "meta_inclination": 96.93,
        "meta_ra_of_asc_node": 16.7531,
        "meta_arg_of_pericenter": 105.459,
        "meta_mean_anomaly": 254.6837,
        "meta_ephemeris_type": 0,
        "meta_classification_type": "U",
        "meta_norad_cat_id": 41774,
        "meta_element_set_no": 999,
        "meta_rev_at_epoch": 51665,
        "meta_bstar": 0.00057945312,
        "meta_mean_motion_dot": 0.00026551,
        "meta_mean_motion_ddot": 0,
        "tle_line1": "1 41774U 16058E   25342.82447133  .00026551  00000+0  57945-3 0  9992",
        "tle_line2": "2 41774  96.9300  16.7531 0001606 105.4590 254.6837 15.44188340516658"
      },
      "geometry": {
        "type": "Point",
        "coordinates": [
          -172.92488662463592,
          -55.388791242461465
        ]
      }
    },
    {
      "type": "Feature",
      "properties": {
        "norad_id": 41785,
        "name": "ALSAT 1B",
        "group": "resource",
        "lat": -78.84019906772625,
        "lon": 131.37990294550036,
        "alt_km": 668.2232401134934,
        "timestamp": "2025-12-09T07:41:32.860341+00:00",
        "meta_object_name": "ALSAT 1B",
        "meta_object_id": "2016-059C",
        "meta_epoch": "2025-12-08T23:58:52.745376",
        "meta_mean_motion": 14.72068946,
        "meta_eccentricity": 0.00105926,
        "meta_inclination": 97.781,
        "meta_ra_of_asc_node": 354.9502,
        "meta_arg_of_pericenter": 113.6796,
        "meta_mean_anomaly": 246.5525,
        "meta_ephemeris_type": 0,
        "meta_classification_type": "U",
        "meta_norad_cat_id": 41785,
        "meta_element_set_no": 999,
        "meta_rev_at_epoch": 49259,
        "meta_bstar": 0.00010646448,
        "meta_mean_motion_dot": 6.23e-06,
        "meta_mean_motion_ddot": 0,
        "tle_line1": "1 41785U 16059C   25342.99922159  .00000623  00000+0  10646-3 0  9998",
        "tle_line2": "2 41785  97.7810 354.9502 0010592 113.6796 246.5525 14.72068946492592"
      },
      "geometry": {
        "type": "Point",
        "coordinates": [
          131.37990294550036,
          -78.84019906772625
        ]
      }
    },
    {
      "type": "Feature",
      "properties": {
        "norad_id": 41787,
        "name": "PATHFINDER 1",
        "group": "resource",
        "lat": 38.154004128555286,
        "lon": -19.94040716714616,
        "alt_km": 654.0241239353127,
        "timestamp": "2025-12-09T07:41:32.860351+00:00",
        "meta_object_name": "PATHFINDER 1",
        "meta_object_id": "2016-059E",
        "meta_epoch": "2025-12-08T23:20:03.762528",
        "meta_mean_motion": 14.67309943,
        "meta_eccentricity": 0.00300561,
        "meta_inclination": 97.8138,
        "meta_ra_of_asc_node": 345.9207,
        "meta_arg_of_pericenter": 92.6207,
        "meta_mean_anomaly": 267.844,
        "meta_ephemeris_type": 0,
        "meta_classification_type": "U",
        "meta_norad_cat_id": 41787,
        "meta_element_set_no": 999,
        "meta_rev_at_epoch": 49181,
        "meta_bstar": 0.00021909813,
        "meta_mean_motion_dot": 1.198e-05,
        "meta_mean_motion_ddot": 0,
        "tle_line1": "1 41787U 16059E   25342.97226577  .00001198  00000+0  21910-3 0  9993",
        "tle_line2": "2 41787  97.8138 345.9207 0030056  92.6207 267.8440 14.67309943491815"
      },
      "geometry": {
        "type": "Point",
        "coordinates": [
          -19.94040716714616,
          38.154004128555286
        ]
      }
    },
    {
      "type": "Feature",
      "properties": {
        "norad_id": 41790,
        "name": "SCATSAT 1",
        "group": "resource",
        "lat": -67.87259524239327,
        "lon": -160.67944073683196,
        "alt_km": 653.5844015921803,
        "timestamp": "2025-12-09T07:41:32.860362+00:00",
        "meta_object_name": "SCATSAT 1",
        "meta_object_id": "2016-059H",
        "meta_epoch": "2025-12-08T17:34:57.844416",
        "meta_mean_motion": 14.78916812,
        "meta_eccentricity": 0.0056069,
        "meta_inclination": 98.1466,
        "meta_ra_of_asc_node": 39.3529,
        "meta_arg_of_pericenter": 140.6701,
        "meta_mean_anomaly": 219.8602,
        "meta_ephemeris_type": 0,
        "meta_classification_type": "U",
        "meta_norad_cat_id": 41790,
        "meta_element_set_no": 999,
        "meta_rev_at_epoch": 7343,
        "meta_bstar": 0.00041381702,
        "meta_mean_motion_dot": 3.076e-05,
        "meta_mean_motion_ddot": 0,
        "tle_line1": "1 41790U 16059H   25342.73261394  .00003076  00000+0  41382-3 0  9999",
        "tle_line2": "2 41790  98.1466  39.3529 0056069 140.6701 219.8602 14.78916812 73435"
      },
      "geometry": {
        "type": "Point",
        "coordinates": [
          -160.67944073683196,
          -67.87259524239327
        ]
      }
    },
    {
      "type": "Feature",
      "properties": {
        "norad_id": 41875,
        "name": "GOKTURK 1A",
        "group": "resource",
        "lat": 7.952923032665769,
        "lon": 56.877199755634095,
        "alt_km": 686.20733795051,
        "timestamp": "2025-12-09T07:41:32.860372+00:00",
        "meta_object_name": "GOKTURK 1A",
        "meta_object_id": "2016-073A",
        "meta_epoch": "2025-12-08T22:42:03.541248",
        "meta_mean_motion": 14.62773017,
        "meta_eccentricity": 0.00012843,
        "meta_inclination": 98.143,
        "meta_ra_of_asc_node": 235.3615,
        "meta_arg_of_pericenter": 77.994,
        "meta_mean_anomaly": 282.1406,
        "meta_ephemeris_type": 0,
        "meta_classification_type": "U",
        "meta_norad_cat_id": 41875,
        "meta_element_set_no": 999,
        "meta_rev_at_epoch": 48101,
        "meta_bstar": 0.00018963766,
        "meta_mean_motion_dot": 9.2e-06,
        "meta_mean_motion_ddot": 0,
        "tle_line1": "1 41875U 16073A   25342.94587432  .00000920  00000+0  18964-3 0  9991",
        "tle_line2": "2 41875  98.1430 235.3615 0001284  77.9940 282.1406 14.62773017481013"
      },
      "geometry": {
        "type": "Point",
        "coordinates": [
          56.877199755634095,
          7.952923032665769
        ]
      }
    }
  ]
}